ONEWEB-0674             
1 55833U 23029AP  24187.93598393 -.00000421  00000+0 -11690-2 0  9998
2 55833  87.8954  71.2313 0002423  84.5667 275.5739 13.14503613 65973
ONEWEB-0675             
1 55834U 23029AQ  24187.74245584  .00000091  00000+0  19497-3 0  9994
2 55834  87.9152  86.5504 0001585  70.2195 289.9108 13.19727179 65083
ONEWEB-0720             
1 55835U 23029AR  24187.96199662  .00000172  00000+0  39685-3 0  9995
2 55835  87.9152  86.5072 0002275  66.4817 293.6555 13.19728276 65031
ONEWEB-0537             
1 56046U 23043A   24187.93904402  .00000062  00000+0  12793-3 0  9998
2 56046  87.9096  10.3604 0001499  94.1690 265.9613 13.16596148 65375
ONEWEB-0538             
1 56047U 23043B   24187.93271250  .00000020  00000+0  19681-4 0  9995
2 56047  87.9096  10.3812 0001666  81.9191 278.2129 13.16596078 65385
ONEWEB-0546             
1 56048U 23043C   24187.92004814 -.00000006  00000+0 -49718-4 0  9995
2 56048  87.9100  10.3481 0001396 118.3043 241.8229 13.16596131 65371
ONEWEB-0547             
1 56049U 23043D   24187.93027300  .00000021  00000+0  19126-4 0  9997
2 56049  87.9276  25.5696 0001703  79.9746 280.1580 13.21827597 64268
ONEWEB-0548             
1 56050U 23043E   24187.86937598 -.00000270  00000+0 -74075-3 0  9991
2 56050  87.9097  10.4013 0002396  95.6189 264.5215 13.16594270 65368
